[
    {
        "Altitude(m)": 605459.0031963348,
        "Argument of Periapsis(deg)": 0.0,
        "Eccentricity": 0.0,
        "Inclination(deg)": 60.0,
        "Latitude(deg)": 27.98813087536118,
        "Longitude(deg)": -67.2014332719665,
        "Mean Anomaly(deg)": 32.7273,
        "RAAN(deg)": 15.0,
        "Satellite Name": "Test1 68",
        "Satellite Number": 68,
        "Semi-Major Axis(m)": 6980739.136638005,
        "Time(s)": 0
    },
    {
        "Altitude(m)": 605535.7939764869,
        "Argument of Periapsis(deg)": 0.00010418945913296404,
        "Eccentricity": 0.0,
        "Inclination(deg)": 60.0,
        "Latitude(deg)": 28.501260607194006,
        "Longitude(deg)": -66.84448886449573,
        "Mean Anomaly(deg)": 33.347406145461825,
        "RAAN(deg)": 14.999579950860259,
        "Satellite Name": "Test1 68",
        "Satellite Number": 68,
        "Semi-Major Axis(m)": 6980739.136638005,
        "Time(s)": 10
    }
]